[{"OBJECT_NAME":"EXO-0","OBJECT_ID":"2023-174DK","EPOCH":"2026-03-09T17:03:04.419648","MEAN_MOTION":15.32821991,"ECCENTRICITY":0.00098779,"INCLINATION":97.3864,"RA_OF_ASC_NODE":148.9039,"ARG_OF_PERICENTER":157.1125,"MEAN_ANOMALY":203.0559,"EPHEMERIS_TYPE":0,"CLASSIFICATION_TYPE":"U","NORAD_CAT_ID":59175,"ELEMENT_SET_NO":999,"REV_AT_EPOCH":12979,"BSTAR":0.00036716083,"MEAN_MOTION_DOT":0.00011582,"MEAN_MOTION_DDOT":0},{"OBJECT_NAME":"STARLINK-35943","OBJECT_ID":"2025-286C","EPOCH":"2026-03-09T22:26:15.278784","MEAN_MOTION":15.30211812,"ECCENTRICITY":0.00011859,"INCLINATION":53.1623,"RA_OF_ASC_NODE":357.3559,"ARG_OF_PERICENTER":104.879,"MEAN_ANOMALY":255.2342,"EPHEMERIS_TYPE":0,"CLASSIFICATION_TYPE":"U","NORAD_CAT_ID":66927,"ELEMENT_SET_NO":999,"REV_AT_EPOCH":1545,"BSTAR":0.00097628406,"MEAN_MOTION_DOT":0.00028678,"MEAN_MOTION_DDOT":0}]
